{
  "type": "FeatureCollection",
  "features": [
    {
      "type": "Feature",
      "properties": {
        "norad_id": 34588,
        "name": "COSMOS 2251 DEB",
        "group": "cosmos-2251-debris",
        "lat": 28.12078353823015,
        "lon": -75.98694349293842,
        "alt_km": 743.7159890697576,
        "timestamp": "2025-12-08T23:34:04.366394+00:00",
        "meta_object_name": "COSMOS 2251 DEB",
        "meta_object_id": "1993-036WA",
        "meta_epoch": "2025-12-08T14:16:09.657408",
        "meta_mean_motion": 14.42002513,
        "meta_eccentricity": 0.00190858,
        "meta_inclination": 74.0442,
        "meta_ra_of_asc_node": 275.9359,
        "meta_arg_of_pericenter": 329.0542,
        "meta_mean_anomaly": 209.7432,
        "meta_ephemeris_type": 0,
        "meta_classification_type": "U",
        "meta_norad_cat_id": 34588,
        "meta_element_set_no": 999,
        "meta_rev_at_epoch": 87890,
        "meta_bstar": 0.00093518215,
        "meta_mean_motion_dot": 3.049e-05,
        "meta_mean_motion_ddot": 0,
        "tle_line1": "1 34588U 93036WA  25342.59455622  .00003049  00000+0  93518-3 0  9997",
        "tle_line2": "2 34588  74.0442 275.9359 0019085 329.0542 209.7432 14.42002513878900"
      },
      "geometry": {
        "type": "Point",
        "coordinates": [
          -75.98694349293842,
          28.12078353823015
        ]
      }
    },
    {
      "type": "Feature",
      "properties": {
        "norad_id": 34589,
        "name": "COSMOS 2251 DEB",
        "group": "cosmos-2251-debris",
        "lat": -73.47207848096967,
        "lon": -41.23760362775847,
        "alt_km": 978.2341425661662,
        "timestamp": "2025-12-08T23:34:04.366405+00:00",
        "meta_object_name": "COSMOS 2251 DEB",
        "meta_object_id": "1993-036WB",
        "meta_epoch": "2025-12-08T06:57:07.176960",
        "meta_mean_motion": 13.86047375,
        "meta_eccentricity": 0.02517547,
        "meta_inclination": 73.9253,
        "meta_ra_of_asc_node": 63.614,
        "meta_arg_of_pericenter": 7.8505,
        "meta_mean_anomaly": 47.8863,
        "meta_ephemeris_type": 0,
        "meta_classification_type": "U",
        "meta_norad_cat_id": 34589,
        "meta_element_set_no": 999,
        "meta_rev_at_epoch": 84650,
        "meta_bstar": 0.00039289139,
        "meta_mean_motion_dot": 5.56e-06,
        "meta_mean_motion_ddot": 0,
        "tle_line1": "1 34589U 93036WB  25342.28966640  .00000556  00000+0  39289-3 0  9996",
        "tle_line2": "2 34589  73.9253  63.6140 0251754   7.8505  47.8863 13.86047375846502"
      },
      "geometry": {
        "type": "Point",
        "coordinates": [
          -41.23760362775847,
          -73.47207848096967
        ]
      }
    },
    {
      "type": "Feature",
      "properties": {
        "norad_id": 34590,
        "name": "COSMOS 2251 DEB",
        "group": "cosmos-2251-debris",
        "lat": 41.32539111292833,
        "lon": -15.769084730993415,
        "alt_km": 679.7658840153335,
        "timestamp": "2025-12-08T23:34:04.366416+00:00",
        "meta_object_name": "COSMOS 2251 DEB",
        "meta_object_id": "1993-036WC",
        "meta_epoch": "2025-12-08T08:49:54.255648",
        "meta_mean_motion": 14.54818617,
        "meta_eccentricity": 0.00679709,
        "meta_inclination": 74.0435,
        "meta_ra_of_asc_node": 330.8209,
        "meta_arg_of_pericenter": 101.6993,
        "meta_mean_anomaly": 327.9634,
        "meta_ephemeris_type": 0,
        "meta_classification_type": "U",
        "meta_norad_cat_id": 34590,
        "meta_element_set_no": 999,
        "meta_rev_at_epoch": 89057,
        "meta_bstar": 0.00024272022,
        "meta_mean_motion_dot": 1.044e-05,
        "meta_mean_motion_ddot": 0,
        "tle_line1": "1 34590U 93036WC  25342.36798907  .00001044  00000+0  24272-3 0  9995",
        "tle_line2": "2 34590  74.0435 330.8209 0067970 101.6993 327.9634 14.54818617890577"
      },
      "geometry": {
        "type": "Point",
        "coordinates": [
          -15.769084730993415,
          41.32539111292833
        ]
      }
    },
    {
      "type": "Feature",
      "properties": {
        "norad_id": 34609,
        "name": "COSMOS 2251 DEB",
        "group": "cosmos-2251-debris",
        "lat": -69.99336160458168,
        "lon": -13.095887814849732,
        "alt_km": 798.7280781844238,
        "timestamp": "2025-12-08T23:34:04.366428+00:00",
        "meta_object_name": "COSMOS 2251 DEB",
        "meta_object_id": "1993-036WE",
        "meta_epoch": "2025-12-08T15:42:04.539744",
        "meta_mean_motion": 14.21771617,
        "meta_eccentricity": 0.01448725,
        "meta_inclination": 73.733,
        "meta_ra_of_asc_node": 114.1887,
        "meta_arg_of_pericenter": 334.3181,
        "meta_mean_anomaly": 48.4341,
        "meta_ephemeris_type": 0,
        "meta_classification_type": "U",
        "meta_norad_cat_id": 34609,
        "meta_element_set_no": 999,
        "meta_rev_at_epoch": 86574,
        "meta_bstar": 0.0012761334,
        "meta_mean_motion_dot": 3.097e-05,
        "meta_mean_motion_ddot": 0,
        "tle_line1": "1 34609U 93036WE  25342.65421921  .00003097  00000+0  12761-2 0  9996",
        "tle_line2": "2 34609  73.7330 114.1887 0144872 334.3181  48.4341 14.21771617865747"
      },
      "geometry": {
        "type": "Point",
        "coordinates": [
          -13.095887814849732,
          -69.99336160458168
        ]
      }
    },
    {
      "type": "Feature",
      "properties": {
        "norad_id": 34610,
        "name": "COSMOS 2251 DEB",
        "group": "cosmos-2251-debris",
        "lat": -72.73388662955072,
        "lon": 156.12053131077414,
        "alt_km": 970.9095711905629,
        "timestamp": "2025-12-08T23:34:04.366439+00:00",
        "meta_object_name": "COSMOS 2251 DEB",
        "meta_object_id": "1993-036WF",
        "meta_epoch": "2025-12-08T05:15:19.922112",
        "meta_mean_motion": 14.07004526,
        "meta_eccentricity": 0.01802267,
        "meta_inclination": 74.0197,
        "meta_ra_of_asc_node": 270.2468,
        "meta_arg_of_pericenter": 41.8387,
        "meta_mean_anomaly": 319.6364,
        "meta_ephemeris_type": 0,
        "meta_classification_type": "U",
        "meta_norad_cat_id": 34610,
        "meta_element_set_no": 999,
        "meta_rev_at_epoch": 85496,
        "meta_bstar": 0.0028118282,
        "meta_mean_motion_dot": 5.422e-05,
        "meta_mean_motion_ddot": 0,
        "tle_line1": "1 34610U 93036WF  25342.21898058  .00005422  00000+0  28118-2 0  9996",
        "tle_line2": "2 34610  74.0197 270.2468 0180226  41.8387 319.6364 14.07004526854966"
      },
      "geometry": {
        "type": "Point",
        "coordinates": [
          156.12053131077414,
          -72.73388662955072
        ]
      }
    },
    {
      "type": "Feature",
      "properties": {
        "norad_id": 34611,
        "name": "COSMOS 2251 DEB",
        "group": "cosmos-2251-debris",
        "lat": -15.709414257289753,
        "lon": -67.14920132148404,
        "alt_km": 655.9165359578537,
        "timestamp": "2025-12-08T23:34:04.366476+00:00",
        "meta_object_name": "COSMOS 2251 DEB",
        "meta_object_id": "1993-036WG",
        "meta_epoch": "2025-12-08T11:33:31.679424",
        "meta_mean_motion": 14.69373356,
        "meta_eccentricity": 0.00231754,
        "meta_inclination": 74.0536,
        "meta_ra_of_asc_node": 109.2058,
        "meta_arg_of_pericenter": 152.3424,
        "meta_mean_anomaly": 277.9243,
        "meta_ephemeris_type": 0,
        "meta_classification_type": "U",
        "meta_norad_cat_id": 34611,
        "meta_element_set_no": 999,
        "meta_rev_at_epoch": 88328,
        "meta_bstar": 0.0022807542,
        "meta_mean_motion_dot": 0.00013536,
        "meta_mean_motion_ddot": 0,
        "tle_line1": "1 34611U 93036WG  25342.48161666  .00013536  00000+0  22808-2 0  9999",
        "tle_line2": "2 34611  74.0536 109.2058 0023175 152.3424 277.9243 14.69373356883286"
      },
      "geometry": {
        "type": "Point",
        "coordinates": [
          -67.14920132148404,
          -15.709414257289753
        ]
      }
    },
    {
      "type": "Feature",
      "properties": {
        "norad_id": 34613,
        "name": "COSMOS 2251 DEB",
        "group": "cosmos-2251-debris",
        "lat": 33.27858405209308,
        "lon": 94.4957638798959,
        "alt_km": 730.6468201541202,
        "timestamp": "2025-12-08T23:34:04.366495+00:00",
        "meta_object_name": "COSMOS 2251 DEB",
        "meta_object_id": "1993-036WJ",
        "meta_epoch": "2025-12-08T06:46:17.263200",
        "meta_mean_motion": 14.26392595,
        "meta_eccentricity": 0.01101087,
        "meta_inclination": 73.9641,
        "meta_ra_of_asc_node": 286.6469,
        "meta_arg_of_pericenter": 119.6298,
        "meta_mean_anomaly": 32.5714,
        "meta_ephemeris_type": 0,
        "meta_classification_type": "U",
        "meta_norad_cat_id": 34613,
        "meta_element_set_no": 999,
        "meta_rev_at_epoch": 86399,
        "meta_bstar": 0.0018958544,
        "meta_mean_motion_dot": 4.838e-05,
        "meta_mean_motion_ddot": 0,
        "tle_line1": "1 34613U 93036WJ  25342.28214425  .00004838  00000+0  18959-2 0  9998",
        "tle_line2": "2 34613  73.9641 286.6469 0110108 119.6298  32.5714 14.26392595863990"
      },
      "geometry": {
        "type": "Point",
        "coordinates": [
          94.4957638798959,
          33.27858405209308
        ]
      }
    }
  ]
}